{
    "links": {
        "self": "http://www.neowsapp.com/rest/v1/neo/3715467?api_key=iIulBulltgU6a56xZRHN4H3l9WmuAYTsLGpBGhQ2"
    },
    "id": "3715467",
    "neo_reference_id": "3715467",
    "name": "(2015 GL)",
    "designation": "2015 GL",
    "nasa_jpl_url": "http://ssd.jpl.nasa.gov/sbdb.cgi?sstr=3715467",
    "absolute_magnitude_h": 25.0,
    "estimated_diameter": {
        "kilometers": {
            "estimated_diameter_min": 0.02658,
            "estimated_diameter_max": 0.0594346868
        },
        "meters": {
            "estimated_diameter_min": 26.58,
            "estimated_diameter_max": 59.4346868419
        },
        "miles": {
            "estimated_diameter_min": 0.0165160412,
            "estimated_diameter_max": 0.0369309908
        },
        "feet": {
            "estimated_diameter_min": 87.2047272,
            "estimated_diameter_max": 194.9956979785
        }
    },
    "is_potentially_hazardous_asteroid": false,
    "close_approach_data": [
        {
            "close_approach_date": "2013-03-04",
            "close_approach_date_full": "2013-Mar-04 19:02",
            "epoch_date_close_approach": 1362423720000,
            "relative_velocity": {
                "kilometers_per_second": "21.0333819848",
                "kilometers_per_hour": "75720.1751451572",
                "miles_per_hour": "47049.5721617228"
            },
            "miss_distance": {
                "astronomical": "0.4639878016",
                "lunar": "180.4912548224",
                "kilometers": "69411586.825342592",
                "miles": "43130360.0718960896"
            },
            "orbiting_body": "Earth"
        },
        {
            "close_approach_date": "2015-04-13",
            "close_approach_date_full": "2015-Apr-13 05:53",
            "epoch_date_close_approach": 1428904380000,
            "relative_velocity": {
                "kilometers_per_second": "8.6191171653",
                "kilometers_per_hour": "31028.8217950339",
                "miles_per_hour": "19280.1031870309"
            },
            "miss_distance": {
                "astronomical": "0.0154911208",
                "lunar": "6.0260459912",
                "kilometers": "2317438.675592696",
                "miles": "1439989.6198073648"
            },
            "orbiting_body": "Earth"
        },
        {
            "close_approach_date": "2017-07-05",
            "close_approach_date_full": "2017-Jul-05 18:11",
            "epoch_date_close_approach": 1499278260000,
            "relative_velocity": {
                "kilometers_per_second": "18.2052196584",
                "kilometers_per_hour": "65538.7907701097",
                "miles_per_hour": "40723.255853794"
            },
            "miss_distance": {
                "astronomical": "0.4282343014",
                "lunar": "166.5831432446",
                "kilometers": "64062939.350378018",
                "miles": "39806864.6434839284"
            },
            "orbiting_body": "Earth"
        }
    ],
    "orbital_data": {
        "orbit_id": "9",
        "orbit_determination_date": "2017-04-06 08:34:33",
        "first_observation_date": "2015-04-09",
        "last_observation_date": "2015-04-16",
        "data_arc_in_days": 7,
        "observations_used": 34,
        "orbit_uncertainty": "7",
        "minimum_orbit_intersection": ".00723318",
        "jupiter_tisserand_invariant": "4.197",
        "epoch_osculation": "2459000.5",
        "eccentricity": ".3963521898322123",
        "semi_major_axis": "1.633395760535822",
        "inclination": "10.47840238997055",
        "ascending_node_longitude": "199.0431334218817",
        "orbital_period": "762.4924766329989",
        "perihelion_distance": ".985995773984797",
        "perihelion_argument": "23.93498315079808",
        "aphelion_distance": "2.280795747086847",
        "perihelion_time": "2458668.529404537977",
        "mean_anomaly": "156.7352046462882",
        "mean_motion": ".4721358059684494",
        "equinox": "J2000",
        "orbit_class": {
            "orbit_class_type": "APO",
            "orbit_class_description": "Near-Earth asteroid orbits which cross the Earth’s orbit similar to that of 1862 Apollo",
            "orbit_class_range": "a (semi-major axis) > 1.0 AU; q (perihelion) < 1.017 AU"
        }
    },
    "is_sentry_object": false
}